start=new Date('2022-06-04T00:00:00.000Z').valueOf();
sats=[{"RCS_SIZE":"LARGE","LAUNCH_DATE":"2021-03-14","REF_FRAME":"TEME","NORAD_CAT_ID":"47919","SEMIMAJOR_AXIS":"6925.328","MEAN_MOTION":"15.06406555","MEAN_MOTION_DOT":"0.00000219","RA_OF_ASC_NODE":"334.4502","TLE_LINE2":"2 47919  53.0540 334.4502 0002213  54.4944 305.6251 15.06406555 68786","MEAN_MOTION_DDOT":"0.0000000000000","PERIAPSIS":"545.661","OBJECT_ID":"2021-021BM","MEAN_ANOMALY":"305.6251","INCLINATION":"53.0540","COUNTRY_CODE":"US","ELEMENT_SET_NO":"999","PERIOD":"95.592","REV_AT_EPOCH":"6878","MEAN_ELEMENT_THEORY":"SGP4","FILE":"3479630","TLE_LINE1":"1 47919U 21021BM  22154.63995265  .00000219  00000-0  33630-4 0  9996","CENTER_NAME":"EARTH","CLASSIFICATION_TYPE":"U","OBJECT_TYPE":"PAYLOAD","GP_ID":"205297629","OBJECT_NAME":"STARLINK-2405","EPHEMERIS_TYPE":"0","ECCENTRICITY":"0.00022130","SITE":"AFETR","DECAY_DATE":null,"BSTAR":"0.00003363000000","APOAPSIS":"548.726","ARG_OF_PERICENTER":"54.4944","EPOCH":"2022-06-03T15:21:31.908960","TIME_SYSTEM":"UTC"},{"CENTER_NAME":"EARTH","CLASSIFICATION_TYPE":"U","GP_ID":"205296883","OBJECT_TYPE":"PAYLOAD","ARG_OF_PERICENTER":"62.3695","EPOCH":"2022-06-03T21:56:18.464640","TIME_SYSTEM":"UTC","OBJECT_NAME":"STARLINK-2087","EPHEMERIS_TYPE":"0","ECCENTRICITY":"0.00018140","APOAPSIS":"548.509","DECAY_DATE":null,"SITE":"AFETR","BSTAR":"0.00008943700000","ELEMENT_SET_NO":"999","PERIOD":"95.593","MEAN_ANOMALY":"297.7478","INCLINATION":"53.0576","COUNTRY_CODE":"US","MEAN_ELEMENT_THEORY":"SGP4","TLE_LINE1":"1 47977U 21024A   22154.91410260  .00001050  00000-0  89437-4 0  9991","FILE":"3479630","REV_AT_EPOCH":"6749","MEAN_MOTION_DOT":"0.00001050","SEMIMAJOR_AXIS":"6925.388","MEAN_MOTION":"15.06387121","PERIAPSIS":"545.997","OBJECT_ID":"2021-024A","RA_OF_ASC_NODE":"18.2300","MEAN_MOTION_DDOT":"0.0000000000000","TLE_LINE2":"2 47977  53.0576  18.2300 0001814  62.3695 297.7478 15.06387121 67495","REF_FRAME":"TEME","RCS_SIZE":"LARGE","LAUNCH_DATE":"2021-03-24","NORAD_CAT_ID":"47977"},{"TLE_LINE1":"1 47978U 21024B   22154.66989885  .00000076  00000-0  23972-4 0  9997","FILE":"3479630","MEAN_ELEMENT_THEORY":"SGP4","REV_AT_EPOCH":"6731","PERIOD":"95.592","ELEMENT_SET_NO":"999","COUNTRY_CODE":"US","INCLINATION":"53.0544","MEAN_ANOMALY":"299.4363","TIME_SYSTEM":"UTC","EPOCH":"2022-06-03T16:04:39.260640","ARG_OF_PERICENTER":"60.6785","DECAY_DATE":null,"SITE":"AFETR","APOAPSIS":"548.303","BSTAR":"0.00002397200000","ECCENTRICITY":"0.00015910","EPHEMERIS_TYPE":"0","OBJECT_NAME":"STARLINK-1647","OBJECT_TYPE":"PAYLOAD","GP_ID":"205297133","CLASSIFICATION_TYPE":"U","CENTER_NAME":"EARTH","NORAD_CAT_ID":"47978","REF_FRAME":"TEME","LAUNCH_DATE":"2021-03-24","RCS_SIZE":"LARGE","OBJECT_ID":"2021-024B","PERIAPSIS":"546.099","TLE_LINE2":"2 47978  53.0544  29.3163 0001591  60.6785 299.4363 15.06404123 67319","MEAN_MOTION_DDOT":"0.0000000000000","RA_OF_ASC_NODE":"29.3163","MEAN_MOTION_DOT":"0.00000076","SEMIMAJOR_AXIS":"6925.336","MEAN_MOTION":"15.06404123"},{"TIME_SYSTEM":"UTC","ARG_OF_PERICENTER":"62.1576","EPOCH":"2022-06-03T20:57:15.319872","SITE":"AFETR","DECAY_DATE":null,"BSTAR":"0.00003500000000","APOAPSIS":"548.207","OBJECT_NAME":"STARLINK-2325","ECCENTRICITY":"0.00014350","EPHEMERIS_TYPE":"0","CLASSIFICATION_TYPE":"U","OBJECT_TYPE":"PAYLOAD","GP_ID":"205297385","CENTER_NAME":"EARTH","FILE":"3479630","TLE_LINE1":"1 47979U 21024C   22154.87309398  .00000240  00000-0  35000-4 0  9994","MEAN_ELEMENT_THEORY":"SGP4","REV_AT_EPOCH":"6825","ELEMENT_SET_NO":"999","PERIOD":"95.592","COUNTRY_CODE":"US","MEAN_ANOMALY":"297.9558","INCLINATION":"53.0565","OBJECT_ID":"2021-024C","PERIAPSIS":"546.219","MEAN_MOTION_DDOT":"0.0000000000000","TLE_LINE2":"2 47979  53.0565 323.4103 0001435  62.1576 297.9558 15.06400110 68252","RA_OF_ASC_NODE":"323.4103","MEAN_MOTION_DOT":"0.00000240","SEMIMAJOR_AXIS":"6925.348","MEAN_MOTION":"15.06400110","NORAD_CAT_ID":"47979","REF_FRAME":"TEME","LAUNCH_DATE":"2021-03-24","RCS_SIZE":"LARGE"},{"NORAD_CAT_ID":"47980","LAUNCH_DATE":"2021-03-24","RCS_SIZE":"LARGE","REF_FRAME":"TEME","TLE_LINE2":"2 47980  53.0563 303.7164 0001880  62.7503 297.3676 15.03967965 68001","MEAN_MOTION_DDOT":"0.0000000000000","RA_OF_ASC_NODE":"303.7164","OBJECT_ID":"2021-024D","PERIAPSIS":"553.374","SEMIMAJOR_AXIS":"6932.812","MEAN_MOTION_DOT":"0.00000051","MEAN_MOTION":"15.03967965","REV_AT_EPOCH":"6800","FILE":"3479436","TLE_LINE1":"1 47980U 21024D   22154.82230231  .00000051  00000-0  23375-4 0  9992","MEAN_ELEMENT_THEORY":"SGP4","COUNTRY_CODE":"US","INCLINATION":"53.0563","MEAN_ANOMALY":"297.3676","PERIOD":"95.747","ELEMENT_SET_NO":"999","DECAY_DATE":null,"BSTAR":"0.00002337500000","SITE":"AFETR","APOAPSIS":"555.981","ECCENTRICITY":"0.00018800","EPHEMERIS_TYPE":"0","OBJECT_NAME":"STARLINK-2312","TIME_SYSTEM":"UTC","ARG_OF_PERICENTER":"62.7503","EPOCH":"2022-06-03T19:44:06.919584","OBJECT_TYPE":"PAYLOAD","GP_ID":"205271774","CLASSIFICATION_TYPE":"U","CENTER_NAME":"EARTH"},{"SEMIMAJOR_AXIS":"6925.340","MEAN_MOTION_DOT":"-0.00000639","MEAN_MOTION":"15.06402709","OBJECT_ID":"2021-024E","PERIAPSIS":"546.108","TLE_LINE2":"2 47981  53.0550  28.7733 0001584  68.1655 291.9502 15.06402709 67339","MEAN_MOTION_DDOT":"0.0000000000000","RA_OF_ASC_NODE":"28.7733","REF_FRAME":"TEME","LAUNCH_DATE":"2021-03-24","RCS_SIZE":"LARGE","NORAD_CAT_ID":"47981","GP_ID":"205296384","OBJECT_TYPE":"PAYLOAD","CLASSIFICATION_TYPE":"U","CENTER_NAME":"EARTH","TIME_SYSTEM":"UTC","ARG_OF_PERICENTER":"68.1655","EPOCH":"2022-06-03T18:59:48.895296","DECAY_DATE":null,"SITE":"AFETR","BSTAR":"-0.00002402400000","APOAPSIS":"548.302","EPHEMERIS_TYPE":"0","ECCENTRICITY":"0.00015840","OBJECT_NAME":"STARLINK-2303","PERIOD":"95.592","ELEMENT_SET_NO":"999","COUNTRY_CODE":"US","INCLINATION":"53.0550","MEAN_ANOMALY":"291.9502","TLE_LINE1":"1 47981U 21024E   22154.79153814 -.00000639  00000-0 -24024-4 0  9996","FILE":"3479630","MEAN_ELEMENT_THEORY":"SGP4","REV_AT_EPOCH":"6733"},{"INCLINATION":"53.0548","MEAN_ANOMALY":"309.7494","COUNTRY_CODE":"US","PERIOD":"95.592","ELEMENT_SET_NO":"999","REV_AT_EPOCH":"6778","MEAN_ELEMENT_THEORY":"SGP4","FILE":"3479436","TLE_LINE1":"1 47982U 21024F   22154.83853278  .00001111  00000-0  93476-4 0  9994","CENTER_NAME":"EARTH","OBJECT_TYPE":"PAYLOAD","GP_ID":"205271273","CLASSIFICATION_TYPE":"U","EPHEMERIS_TYPE":"0","ECCENTRICITY":"0.00020100","OBJECT_NAME":"STARLINK-2317","APOAPSIS":"548.595","DECAY_DATE":null,"SITE":"AFETR","BSTAR":"0.00009347600000","ARG_OF_PERICENTER":"50.3672","EPOCH":"2022-06-03T20:07:29.232192","TIME_SYSTEM":"UTC","RCS_SIZE":"LARGE","LAUNCH_DATE":"2021-03-24","REF_FRAME":"TEME","NORAD_CAT_ID":"47982","SEMIMAJOR_AXIS":"6925.338","MEAN_MOTION_DOT":"0.00001111","MEAN_MOTION":"15.06403485","RA_OF_ASC_NODE":"318.5581","TLE_LINE2":"2 47982  53.0548 318.5581 0002010  50.3672 309.7494 15.06403485 67784","MEAN_MOTION_DDOT":"0.0000000000000","PERIAPSIS":"545.811","OBJECT_ID":"2021-024F"},{"TIME_SYSTEM":"UTC","ARG_OF_PERICENTER":"73.1970","EPOCH":"2022-06-03T20:04:44.775840","DECAY_DATE":null,"BSTAR":"-0.00007687700000","SITE":"AFETR","APOAPSIS":"555.644","EPHEMERIS_TYPE":"0","ECCENTRICITY":"0.00013380","OBJECT_NAME":"STARLINK-2308","GP_ID":"205297885","OBJECT_TYPE":"PAYLOAD","CLASSIFICATION_TYPE":"U","CENTER_NAME":"EARTH","FILE":"3479630","TLE_LINE1":"1 47985U 21024J   22154.83662935 -.00001347  00000-0 -76877-4 0  9994","MEAN_ELEMENT_THEORY":"SGP4","REV_AT_EPOCH":"6818","PERIOD":"95.748","ELEMENT_SET_NO":"999","COUNTRY_CODE":"US","INCLINATION":"53.0560","MEAN_ANOMALY":"286.9164","OBJECT_ID":"2021-024J","PERIAPSIS":"553.788","TLE_LINE2":"2 47985  53.0560 323.6666 0001338  73.1970 286.9164 15.03955429 68180","MEAN_MOTION_DDOT":"0.0000000000000","RA_OF_ASC_NODE":"323.6666","SEMIMAJOR_AXIS":"6932.851","MEAN_MOTION":"15.03955429","MEAN_MOTION_DOT":"-0.00001347","NORAD_CAT_ID":"47985","REF_FRAME":"TEME","LAUNCH_DATE":"2021-03-24","RCS_SIZE":"LARGE"},{"REF_FRAME":"TEME","RCS_SIZE":"LARGE","LAUNCH_DATE":"2021-03-24","NORAD_CAT_ID":"47988","SEMIMAJOR_AXIS":"6667.886","MEAN_MOTION_DOT":"-0.00002623","MEAN_MOTION":"15.94485212","PERIAPSIS":"283.665","OBJECT_ID":"2021-024M","RA_OF_ASC_NODE":"302.8124","MEAN_MOTION_DDOT":"0.0000111430000","TLE_LINE2":"2 47988  53.0427 302.8124 0009128 276.7541  83.2448 15.94485212 68476","PERIOD":"90.311","ELEMENT_SET_NO":"999","INCLINATION":"53.0427","MEAN_ANOMALY":"83.2448","COUNTRY_CODE":"US","MEAN_ELEMENT_THEORY":"SGP4","FILE":"3479630","TLE_LINE1":"1 47988U 21024M   22154.79909342 -.00002623  11143-4  23130-5 0  9994","REV_AT_EPOCH":"6847","CENTER_NAME":"EARTH","OBJECT_TYPE":"PAYLOAD","GP_ID":"205297636","CLASSIFICATION_TYPE":"U","ARG_OF_PERICENTER":"276.7541","EPOCH":"2022-06-03T19:10:41.671488","TIME_SYSTEM":"UTC","EPHEMERIS_TYPE":"0","ECCENTRICITY":"0.00091280","OBJECT_NAME":"STARLINK-2306","SITE":"AFETR","DECAY_DATE":null,"BSTAR":"0.00000231300000","APOAPSIS":"295.838"},{"SEMIMAJOR_AXIS":"6925.342","MEAN_MOTION_DOT":"-0.00000761","MEAN_MOTION":"15.06402026","TLE_LINE2":"2 47989  53.0569 298.9172 0001557  83.9922 276.1244 15.06402026 68530","MEAN_MOTION_DDOT":"0.0000000000000","RA_OF_ASC_NODE":"298.9172","OBJECT_ID":"2021-024N","PERIAPSIS":"546.129","LAUNCH_DATE":"2021-03-24","RCS_SIZE":"LARGE","REF_FRAME":"TEME","NORAD_CAT_ID":"47989","OBJECT_TYPE":"PAYLOAD","GP_ID":"205296884","CLASSIFICATION_TYPE":"U","CENTER_NAME":"EARTH","DECAY_DATE":null,"BSTAR":"-0.00003220400000","SITE":"AFETR","APOAPSIS":"548.286","ECCENTRICITY":"0.00015570","EPHEMERIS_TYPE":"0","OBJECT_NAME":"STARLINK-2305","TIME_SYSTEM":"UTC","ARG_OF_PERICENTER":"83.9922","EPOCH":"2022-06-03T18:18:40.842144","COUNTRY_CODE":"US","INCLINATION":"53.0569","MEAN_ANOMALY":"276.1244","PERIOD":"95.592","ELEMENT_SET_NO":"999","REV_AT_EPOCH":"6853","TLE_LINE1":"1 47989U 21024N   22154.76297271 -.00000761  00000-0 -32204-4 0  9992","FILE":"3479630","MEAN_ELEMENT_THEORY":"SGP4"}];
